[
    {
        "Altitude(m)": 622205.832433996,
        "Argument of Periapsis(deg)": 0.0,
        "Eccentricity": 0.0,
        "Inclination(deg)": 60.0,
        "Latitude(deg)": -52.16233865880862,
        "Longitude(deg)": 122.70035109125209,
        "Mean Anomaly(deg)": -114.54550000000008,
        "RAAN(deg)": 355.0,
        "Satellite Name": "Test1 1577",
        "Satellite Number": 1577,
        "Semi-Major Axis(m)": 6980739.136638005,
        "Time(s)": 0
    },
    {
        "Altitude(m)": 622344.7392589429,
        "Argument of Periapsis(deg)": 0.00010418945913296404,
        "Eccentricity": 0.0,
        "Inclination(deg)": 60.0,
        "Latitude(deg)": -52.51991873067101,
        "Longitude(deg)": 123.48156118520255,
        "Mean Anomaly(deg)": -113.9253938545382,
        "RAAN(deg)": 354.99957995086027,
        "Satellite Name": "Test1 1577",
        "Satellite Number": 1577,
        "Semi-Major Axis(m)": 6980739.136638005,
        "Time(s)": 10
    },
    {
        "Altitude(m)": 622480.80244362,
        "Argument of Periapsis(deg)": 0.0002083789182659281,
        "Eccentricity": 0.0,
        "Inclination(deg)": 60.0,
        "Latitude(deg)": -52.87166221832301,
        "Longitude(deg)": 124.27610336378736,
        "Mean Anomaly(deg)": -113.30528770907637,
        "RAAN(deg)": 354.99915990172053,
        "Satellite Name": "Test1 1577",
        "Satellite Number": 1577,
        "Semi-Major Axis(m)": 6980739.136638005,
        "Time(s)": 20
    },
    {
        "Altitude(m)": 622613.9687565342,
        "Argument of Periapsis(deg)": 0.00031256837739889213,
        "Eccentricity": 0.0,
        "Inclination(deg)": 60.0,
        "Latitude(deg)": -53.2174012615103,
        "Longitude(deg)": 125.08413859548979,
        "Mean Anomaly(deg)": -112.68518156361455,
        "RAAN(deg)": 354.9987398525808,
        "Satellite Name": "Test1 1577",
        "Satellite Number": 1577,
        "Semi-Major Axis(m)": 6980739.136638005,
        "Time(s)": 30
    },
    {
        "Altitude(m)": 622744.1860764239,
        "Argument of Periapsis(deg)": 0.0004167578365318562,
        "Eccentricity": 0.0,
        "Inclination(deg)": 60.0,
        "Latitude(deg)": -53.55696459308947,
        "Longitude(deg)": 125.90581622575097,
        "Mean Anomaly(deg)": -112.06507541815272,
        "RAAN(deg)": 354.99831980344106,
        "Satellite Name": "Test1 1577",
        "Satellite Number": 1577,
        "Semi-Major Axis(m)": 6980739.136638005,
        "Time(s)": 40
    },
    {
        "Altitude(m)": 622871.4034144905,
        "Argument of Periapsis(deg)": 0.0005209472956648203,
        "Eccentricity": 0.0,
        "Inclination(deg)": 60.0,
        "Latitude(deg)": -53.890177661784044,
        "Longitude(deg)": 126.74127158048447,
        "Mean Anomaly(deg)": -111.44496927269084,
        "RAAN(deg)": 354.99789975430133,
        "Satellite Name": "Test1 1577",
        "Satellite Number": 1577,
        "Semi-Major Axis(m)": 6980739.136638005,
        "Time(s)": 50
    },
    {
        "Altitude(m)": 622995.5709361553,
        "Argument of Periapsis(deg)": 0.0006251367547977843,
        "Eccentricity": 0.0,
        "Inclination(deg)": 60.0,
        "Latitude(deg)": -54.21686277892773,
        "Longitude(deg)": 127.59062501885734,
        "Mean Anomaly(deg)": -110.824863127229,
        "RAAN(deg)": 354.99747970516154,
        "Satellite Name": "Test1 1577",
        "Satellite Number": 1577,
        "Semi-Major Axis(m)": 6980739.136638005,
        "Time(s)": 60
    },
    {
        "Altitude(m)": 623116.6399822896,
        "Argument of Periapsis(deg)": 0.0007293262139307483,
        "Eccentricity": 0.0,
        "Inclination(deg)": 60.0,
        "Latitude(deg)": -54.53683929080831,
        "Longitude(deg)": 128.45398092682518,
        "Mean Anomaly(deg)": -110.20475698176719,
        "RAAN(deg)": 354.99705965602186,
        "Satellite Name": "Test1 1577",
        "Satellite Number": 1577,
        "Semi-Major Axis(m)": 6980739.136638005,
        "Time(s)": 70
    },
    {
        "Altitude(m)": 623234.5630899292,
        "Argument of Periapsis(deg)": 0.0008335156730637124,
        "Eccentricity": 0.0,
        "Inclination(deg)": 60.0,
        "Latitude(deg)": -54.849923778184554,
        "Longitude(deg)": 129.33142514419998,
        "Mean Anomaly(deg)": -109.58465083630536,
        "RAAN(deg)": 354.99663960688207,
        "Satellite Name": "Test1 1577",
        "Satellite Number": 1577,
        "Semi-Major Axis(m)": 6980739.136638005,
        "Time(s)": 80
    },
    {
        "Altitude(m)": 623349.2940124939,
        "Argument of Periapsis(deg)": 0.0009377051321966765,
        "Eccentricity": 0.0,
        "Inclination(deg)": 60.0,
        "Latitude(deg)": -55.15593028448469,
        "Longitude(deg)": 130.2230238580376,
        "Mean Anomaly(deg)": -108.96454469084348,
        "RAAN(deg)": 354.9962195577423,
        "Satellite Name": "Test1 1577",
        "Satellite Number": 1577,
        "Semi-Major Axis(m)": 6980739.136638005,
        "Time(s)": 90
    },
    {
        "Altitude(m)": 623460.78773943,
        "Argument of Periapsis(deg)": 0.0010418945913296407,
        "Eccentricity": 0.0,
        "Inclination(deg)": 60.0,
        "Latitude(deg)": -55.45467057409152,
        "Longitude(deg)": 131.1288224580328,
        "Mean Anomaly(deg)": -108.34443854538164,
        "RAAN(deg)": 354.99579950860254,
        "Satellite Name": "Test1 1577",
        "Satellite Number": 1577,
        "Semi-Major Axis(m)": 6980739.136638005,
        "Time(s)": 100
    },
    {
        "Altitude(m)": 623569.0005153711,
        "Argument of Periapsis(deg)": 0.0011460840504626045,
        "Eccentricity": 0.0,
        "Inclination(deg)": 60.0,
        "Latitude(deg)": -55.74595442198711,
        "Longitude(deg)": 132.04884285120534,
        "Mean Anomaly(deg)": -107.72433239991983,
        "RAAN(deg)": 354.9953794594628,
        "Satellite Name": "Test1 1577",
        "Satellite Number": 1577,
        "Semi-Major Axis(m)": 6980739.136638005,
        "Time(s)": 110
    },
    {
        "Altitude(m)": 623673.8898586852,
        "Argument of Periapsis(deg)": 0.0012502735095955685,
        "Eccentricity": 0.0,
        "Inclination(deg)": 60.0,
        "Latitude(deg)": -56.02958993586434,
        "Longitude(deg)": 132.9830822734486,
        "Mean Anomaly(deg)": -107.10422625445798,
        "RAAN(deg)": 354.9949594103231,
        "Satellite Name": "Test1 1577",
        "Satellite Number": 1577,
        "Semi-Major Axis(m)": 6980739.136638005,
        "Time(s)": 120
    },
    {
        "Altitude(m)": 623775.4145795552,
        "Argument of Periapsis(deg)": 0.0013544629687285324,
        "Eccentricity": 0.0,
        "Inclination(deg)": 60.0,
        "Latitude(deg)": -56.305383911599606,
        "Longitude(deg)": 133.93151209862546,
        "Mean Anomaly(deg)": -106.48412010899622,
        "RAAN(deg)": 354.99453936118334,
        "Satellite Name": "Test1 1577",
        "Satellite Number": 1577,
        "Semi-Major Axis(m)": 6980739.136638005,
        "Time(s)": 130
    },
    {
        "Altitude(m)": 623873.5347974162,
        "Argument of Periapsis(deg)": 0.0014586524278614966,
        "Eccentricity": 0.0,
        "Inclination(deg)": 60.0,
        "Latitude(deg)": -56.57314222273064,
        "Longitude(deg)": 134.89407514764665,
        "Mean Anomaly(deg)": -105.86401396353438,
        "RAAN(deg)": 354.9941193120436,
        "Satellite Name": "Test1 1577",
        "Satellite Number": 1577,
        "Semi-Major Axis(m)": 6980739.136638005,
        "Time(s)": 140
    },
    {
        "Altitude(m)": 623968.2119578886,
        "Argument of Periapsis(deg)": 0.0015628418869944607,
        "Eccentricity": 0.0,
        "Inclination(deg)": 60.0,
        "Latitude(deg)": -56.832670244291975,
        "Longitude(deg)": 135.8706845403046,
        "Mean Anomaly(deg)": -105.24390781807257,
        "RAAN(deg)": 354.9936992629039,
        "Satellite Name": "Test1 1577",
        "Satellite Number": 1577,
        "Semi-Major Axis(m)": 6980739.136638005,
        "Time(s)": 150
    },
    {
        "Altitude(m)": 624059.4088491101,
        "Argument of Periapsis(deg)": 0.0016670313461274247,
        "Eccentricity": 0.0,
        "Inclination(deg)": 60.0,
        "Latitude(deg)": -57.08377331102067,
        "Longitude(deg)": 136.86122259571286,
        "Mean Anomaly(deg)": -104.62380167261072,
        "RAAN(deg)": 354.99327921376414,
        "Satellite Name": "Test1 1577",
        "Satellite Number": 1577,
        "Semi-Major Axis(m)": 6980739.136638005,
        "Time(s)": 160
    },
    {
        "Altitude(m)": 624147.0896174941,
        "Argument of Periapsis(deg)": 0.0017712208052603888,
        "Eccentricity": 0.0,
        "Inclination(deg)": 60.0,
        "Latitude(deg)": -57.32625720955914,
        "Longitude(deg)": 137.8655382887682,
        "Mean Anomaly(deg)": -104.00369552714896,
        "RAAN(deg)": 354.99285916462435,
        "Satellite Name": "Test1 1577",
        "Satellite Number": 1577,
        "Semi-Major Axis(m)": 6980739.136638005,
        "Time(s)": 170
    },
    {
        "Altitude(m)": 624231.2197829196,
        "Argument of Periapsis(deg)": 0.001875410264393353,
        "Eccentricity": 0.0,
        "Inclination(deg)": 60.0,
        "Latitude(deg)": -57.55992870386427,
        "Longitude(deg)": 138.88344631008817,
        "Mean Anomaly(deg)": -103.38358938168712,
        "RAAN(deg)": 354.9924391154846,
        "Satellite Name": "Test1 1577",
        "Satellite Number": 1577,
        "Semi-Major Axis(m)": 6980739.136638005,
        "Time(s)": 180
    },
    {
        "Altitude(m)": 624311.7662533105,
        "Argument of Periapsis(deg)": 0.0019795997235263173,
        "Eccentricity": 0.0,
        "Inclination(deg)": 60.0,
        "Latitude(deg)": -57.7845960925608,
        "Longitude(deg)": 139.91472623947033,
        "Mean Anomaly(deg)": -102.76348323622531,
        "RAAN(deg)": 354.9920190663449,
        "Satellite Name": "Test1 1577",
        "Satellite Number": 1577,
        "Semi-Major Axis(m)": 6980739.136638005,
        "Time(s)": 190
    }
]